#dP2021  5 11  0  0  0.00000000      97 __u+U IGS14 FIT  IAC
## 2157 172800.00000000   900.00000000 59345 0.0000000000000
+  123   C01C02C03C04C05C06C07C08C09C10C11C12C13C14C16C19C20
+        C21C22C23C24C25C26C27C28C29C30C32C33C34C35C36C37C38
+        C39C40C41C42C43C44C45C46C60E01E02E03E04E05E07E08E09
+        E11E12E13E14E15E18E19E21E24E25E26E27E30E31E33E36G01
+        G02G03G04G05G06G07G08G09G10G12G13G14G15G16G17G18G19
+        G20G21G22G23G24G25G26G27G28G29G30G31G32J01J02J03J07
+        R01R02R03R04R05R07R08R09R11R12R13R14R15R16R17R18R19
+        R20R21R22R24  0  0  0  0  0  0  0  0  0  0  0  0  0
++        13 13 13 13 13  9  9  9  9  8  8  8  9  8  9  7  7
++         7  7  7  7  7  7  7  7  7  7  7  7  7  7  7  7  8
++         8  8  7  7  7  7  8  7 13  5  4  4  4  4  4  4  4
++         4  4  4  4  4  5  4  4  4  4  4  4  4  4  5  4  4
++         3  3  3  3  3  3  3  3  3  3  3  3  3  3  3  3  4
++         3  4  4  3  3  3  3  3  3  3  3  4  3  8 13  8 13
++         7  6  5  5  6  5  6  5  7  5  7  5  8  7  5  5  7
++         7  6  7  5  0  0  0  0  0  0  0  0  0  0  0  0  0
%c M  cc GPS ccc cccc cccc cccc cccc ccccc ccccc ccccc ccccc
%c cc cc ccc ccc cccc cccc cccc cccc ccccc ccccc ccccc ccccc
%f  1.2500000  1.025000000  0.00000000000  0.000000000000000
%f  0.0000000  0.000000000  0.00000000000  0.000000000000000
%i    0    0    0    0      0      0      0      0         0
%i    0    0    0    0      0      0      0      0         0
/* INFORMATION & ANALYSIS CENTER (IAC)            FINAL DATA
/* S/V CLOCKS ARE ALIGNED TO GNSS TIME                      
/* G:C1WC2W R:C1PC2P E:C1XC5X C:C2IC6I J:C1CC2S             
/* PCV:IGS14_2148 OL/AL:FES2004  NONE     YN ORB:CoN CLK:CoN
*  2021 05 11 12 45  0.00000000
PC01 -34341.467072  24423.936725   -190.073760   -477.581236
PC02   4341.160913  41948.243334   1187.554334    687.556368
PC03 -14809.809430  39461.161299   1136.303590   -314.912760
PC04 -39608.762523  14430.824058     17.667132    -46.410653
PC05  21868.568796  36042.507747    855.652424   -143.523214
PC06 -21085.750125  36824.913437    557.359416    372.553572
PC07  -9493.208506  27892.973604 -29744.662634   -210.963012
PC08 -20773.331398  19128.500282  31281.859841   -890.270572
PC09 -11276.930379  38057.884237 -14551.347632    531.802558
PC10   4728.772456  35575.832428 -21573.952715    -44.250780
PC11  19649.697631 -18290.429275   7746.351097    334.648550
PC12  18394.863418  -2115.324996  20911.787904    888.642278
PC13  -6084.459767  22729.033338  35060.593877    256.445189
PC14  12304.915046 -10743.932003 -22600.440401    701.258430
PC16 -18332.665080  37973.928034  -2978.500625   -831.501970
PC19  -5560.926197  19374.471592  19321.483978    830.819659
PC20 -16342.164554   2002.082117  22557.777696   -921.855555
PC21  17832.533206  17466.376137 -12425.491777   -942.279685
PC22   8746.450537  26056.077160   4736.373862   -957.533537
PC23  -6770.687182 -16186.131764  21705.041185   -904.765198
PC24  27157.305777  -1975.649542   6153.283952   -846.230963
PC25  13583.132174 -13585.116770  20242.340966   -918.762217
PC26  24468.509051   8837.618289 -10148.883417    908.617062
PC27 -13849.259895  -7860.448129 -22938.256152    529.861473
PC28   1229.314149 -21990.505418 -17138.645275    -75.755840
PC29 -14630.369496  23731.359759   1297.929053    390.780502
PC30 -20314.858084  11092.689861 -15614.076045    466.548757
PC32 -18003.174322 -17328.470162  12460.285089   -934.980612
PC33   5478.225922 -19399.308350 -19294.420907   -939.052094
PC34  20364.291337 -11682.190460  15053.093061   -675.968727
PC35   -740.776716  22232.597420  16864.247531   -285.981981
PC36 -14250.531907  13111.015539 -20071.106726   -727.172949
PC37 -23695.134735  -9888.598607  10930.736602   -895.479556
PC38 -15650.608761  22546.327962  32005.353156    148.008414
PC39 -13930.556946  39502.555732  -5451.483296     30.997090
PC40    447.889659  33155.243946 -25934.118271    159.870319
PC41  -8682.679615 -26047.600025  -4931.783493   -944.706380
PC42  16620.664520  -1254.564724 -22328.973924   -916.134972
PC43  15010.867363 -23494.121991   -826.355867   -725.297270
PC44  14043.017810   7705.967563  22838.353562    182.359242
PC45   6957.698032  16043.103302 -21747.700179    437.227642
PC46 -26839.411649   2656.359680  -7095.989097    275.987795
PC60   7242.059342  41528.009586    462.168799 999999.999999
PE01  -7180.959711  14972.300851 -24505.445898  -1105.484642
PE02   7067.903055 -15034.165041  24494.167780    218.310643
PE03   8279.535931 -26471.843103 -10352.832484   -429.727013
PE04   4574.954307  28163.055333  -7863.573042   -768.620133
PE05  16487.047915  -9192.127635 -22792.071263   -281.844474
PE07 -15000.238189 -13257.926682  21819.365279   -536.350807
PE08  -4893.188940 -28024.006893   8212.621497   6003.857902
PE09  14980.841058  12980.244862 -21967.652515   5671.500252
PE11  20931.787600   3936.545748  20536.354555   5993.519913
PE12   1977.863313  16914.036424  24212.300346   5216.105332
PE13 -20637.615680  -4133.247626 -20815.988632    416.246173
PE14   7784.165214  16486.222450  14782.754762  -1427.258801
PE15  -2067.884509 -16810.505845 -24270.429114    814.861730
PE18 -13838.430284 -18665.066448 -22831.239472  -1562.154969
PE19  -9542.414352  25164.843032  12335.475498    274.170100
PE21 -22761.825432    778.388335 -18909.952262   -664.288854
PE24  25470.578545  15041.149889   1348.175776   -894.243181
PE25  22870.980246   -610.290586  18784.562847   -533.501025
PE26 -27008.785785  11324.536446  -4310.706133   1823.313080
PE27 -25754.431750 -14425.877427  -2141.329974    -30.049698
PE30 -12616.789368 -21135.822893  16420.719322   2954.282792
PE31  13595.773989  21042.929109 -15761.126599   -481.050908
PE33 -17694.865930  19572.873098  13431.756074   -468.479079
PE36  27014.659199 -10945.515903   5115.927644   -205.610224
PG01  -1105.841031 -14987.243319 -22128.663948    692.197686
PG02 -20580.913053  14623.862945   8975.970802   -603.302558
PG03  -9462.844764 -21191.332940 -13100.362243   -160.998907
PG04    -34.747185 -24861.133983   9276.828309   -195.823851
PG05  -5304.994005  15074.540981  21035.606477    -41.618842
PG06 -25773.776119   6038.506453  -2494.143321     14.734398
PG07 -16031.509607  -9658.786558  19377.576795    147.783812
PG08   5587.460660 -25793.148368     56.092354    -20.822514
PG09  -8717.542184 -18063.485712  17343.084204   -344.799435
PG10  21928.069820   9092.833988 -12065.879157   -119.771033
PG12   5973.699025  21390.368638 -14929.737639    -39.618811
PG13 -13242.347938  21874.544569   6789.559827    130.691857
PG14 -21538.721512 -10078.866433 -11872.585347     87.220913
PG15  -2474.299434  26247.003045   -685.352947   -150.148012
PG16  10307.668503 -10672.686091  21768.226662   -323.464269
PG17 -14519.453093  -2056.600983 -21718.853027    440.656569
PG18  18817.009463   7135.497144  17356.741635    350.627906
PG19 -16510.431243   7057.579998 -19817.886729     -1.403439
PG20   7252.817733  19687.869093  16397.489606    522.297326
PG21   7267.897987 -16711.125023 -18437.450758    117.361512
PG22  -1129.050846 -18472.765608 -18922.035210   -616.974074
PG23  20675.846916  16607.693643  -1896.696990    107.563984
PG24  -3791.790330  17223.056347 -19998.906927     70.916314
PG25  16833.341854  20239.828918  -4755.677477    135.168135
PG26  17521.331946  -3770.694544  19621.868328     83.889929
PG27  12194.413269 -20776.569733  10579.801658   -128.187950
PG28 -19920.563684  -6335.134914 -15734.590009    573.057411
PG29   6592.075290  18546.967254  17760.400364   -345.203334
PG30 -24762.611531   -755.381079   9950.120006   -424.634547
PG31  25781.924451  -7364.361153    339.666237   -116.666920
PG32  15602.676910   -798.445442 -21348.467223     21.392197
PJ01 -26499.938814  23775.056588  27591.776507   -377.313567
PJ02 -25208.438660  16963.378551 -24780.668636 999999.999999
PJ03 -26606.499139  32107.358539  -1896.262873     -5.210942
PJ07 -25369.772271  33685.305320     -2.728313     -0.074187
PR01 -12299.693751 -16341.155861  15262.589160     79.270786
PR02  -9961.738048   4941.772227  23006.543592    478.179501
PR03  -1986.020144  20605.863492  14986.977210     35.740685
PR04   6996.745039  24494.810238  -1322.843140     86.294695
PR05  12006.534531  14830.131690 -16922.477129     71.522056
PR07   1610.457574 -20960.544500 -14373.946948    -42.492358
PR08  -7122.768608 -24439.320545   1540.908508    -58.959951
PR09  21944.572645   -875.068032  12927.188338     -7.688294
PR11 -10998.674635 -12287.846178  19474.530845     -3.521562
PR12 -23597.405353  -8561.787517   4501.143787    228.015583
PR13 -22282.518096    381.171860 -12429.144510    -54.577417
PR14  -7431.183957   9271.557781 -22563.539886     64.129777
PR15  11262.950616  12528.253146 -19135.079320    103.888794
PR16  24168.821121   7631.714598  -3453.493068    -14.977361
PR17 -15147.446407  19277.114636   6988.538767    423.128855
PR18  -2810.149225  15346.625202  20209.622593     76.120750
PR19  10451.950495   4179.753772  22885.204913   -143.283798
PR20  19830.419996 -11529.184282  11109.935608    -48.914750
PR21  14571.989720 -19293.315004  -8167.254831   -208.150749
PR22   1875.957371 -14643.299568 -20790.008079   -112.183954
PR24 -19880.445828  12177.976048 -10329.197901     42.209952
EOF
